NORAD_CAT_ID,OBJECT_NAME,OBJECT_TYPE,EPOCH,MEAN_MOTION,ECCENTRICITY,INCLINATION,RA_OF_ASC_NODE,ARG_OF_PERICENTER,MEAN_ANOMALY,BSTAR,MEAN_MOTION_DOT,MEAN_MOTION_DDOT,TLE_LINE0,TLE_LINE1,TLE_LINE2,SEMIMAJOR_AXIS,PERIOD,APOGEE,PERIGEE,DECAYED
54779.0,STARLINK-5447,PAYLOAD,2023-06-15 08:33:04,15.08837706,8.06e-05,53.2157,190.9175,83.4111,276.6973,5.0772e-05,5.2e-06,0.0,0 STARLINK-5447,1 54779U 22175X   23166.35629670  .00000520  00000-0  50772-4 0  9997,2 54779  53.2157 190.9175 0000806  83.4111 276.6973 15.08837706 29412,6917.887,95.438,540.31,539.195,0.0
54779.0,STARLINK-5447,PAYLOAD,2023-06-15 18:05:23,15.08836648,8.2e-05,53.2157,189.1334,82.1851,277.9234,3.8418e-05,3.24e-06,0.0,0 STARLINK-5447,1 54779U 22175X   23166.75373853  .00000324  00000-0  38418-4 0  9995,2 54779  53.2157 189.1334 0000820  82.1851 277.9234 15.08836648 29476,6917.891,95.438,540.323,539.188,0.0
54779.0,STARLINK-5447,PAYLOAD,2023-06-16 02:02:18,15.08837567,8.33e-05,53.2158,187.6465,85.2929,274.8159,2.9017e-05,1.74e-06,0.0,0 STARLINK-5447,1 54779U 22175X   23167.08493874  .00000174  00000-0  29017-4 0  9996,2 54779  53.2158 187.6465 0000833  85.2929 274.8159 15.08837567 27368,6917.888,95.438,540.329,539.177,0.0
54779.0,STARLINK-5447,PAYLOAD,2023-06-16 11:34:37,15.08841077,8.67e-05,53.2161,185.8631,82.2962,277.8128,5.9551e-05,6.6e-06,0.0,0 STARLINK-5447,1 54779U 22175X   23167.48237612  .00000660  00000-0  59551-4 0  9992,2 54779  53.2161 185.8631 0000867  82.2962 277.8128 15.08841077 29584,6917.877,95.437,540.342,539.142,0.0
54779.0,STARLINK-5447,PAYLOAD,2023-06-16 17:56:10,15.08834613,8.34e-05,53.2157,184.673,77.0324,283.0761,1.5044e-05,-4.8e-07,0.0,0 STARLINK-5447,1 54779U 22175X   23167.74734170 -.00000048  00000-0  15044-4 0  9992,2 54779  53.2157 184.6730 0000834  77.0324 283.0761 15.08834613 29629,6917.897,95.438,540.339,539.185,0.0
54779.0,STARLINK-5447,PAYLOAD,2023-06-17 01:53:06,15.08831907,8.42e-05,53.2158,183.1863,82.2573,277.8515,-4.7722e-06,-3.64e-06,0.0,0 STARLINK-5447,1 54779U 22175X   23168.07854488 -.00000364  00000-0 -47722-5 0  9995,2 54779  53.2158 183.1863 0000842  82.2573 277.8515 15.08831907 27511,6917.905,95.438,540.353,539.188,0.0
54779.0,STARLINK-5447,PAYLOAD,2023-06-17 08:14:38,15.08832852,8.5e-05,53.2159,181.9969,82.031,278.0779,3.1365e-06,-2.38e-06,0.0,0 STARLINK-5447,1 54779U 22175X   23168.34350515 -.00000238  00000-0  31365-5 0  9992,2 54779  53.2159 181.9969 0000850  82.0310 278.0779 15.08832852 29710,6917.902,95.438,540.355,539.179,0.0
54779.0,STARLINK-5447,PAYLOAD,2023-06-17 17:46:57,15.08834153,8.46e-05,53.216,180.2129,80.9412,279.1676,1.8444e-05,6e-08,0.0,0 STARLINK-5447,1 54779U 22175X   23168.74094519  .00000006  00000-0  18444-4 0  9999,2 54779  53.2160 180.2129 0000846  80.9412 279.1676 15.08834153 29777,6917.898,95.438,540.349,539.178,0.0
54779.0,STARLINK-5447,PAYLOAD,2023-06-18 17:37:44,15.08839769,8.47e-05,53.216,175.7523,80.6795,279.4293,4.9486e-05,5e-06,0.0,0 STARLINK-5447,1 54779U 22175X   23169.73454247  .00000500  00000-0  49486-4 0  9996,2 54779  53.2160 175.7523 0000847  80.6795 279.4293 15.08839769 27769,6917.881,95.438,540.332,539.16,0.0
54779.0,STARLINK-5447,PAYLOAD,2023-06-19 09:31:35,15.0884181,8.25e-05,53.2156,172.7782,80.6762,279.4324,0.0001116,1.489e-05,0.0,0 STARLINK-5447,1 54779U 22175X   23170.39693969  .00001489  00000-0  11160-3 0  9990,2 54779  53.2156 172.7782 0000825  80.6762 279.4324 15.08841810 30026,6917.875,95.437,540.311,539.169,0.0
54779.0,STARLINK-5447,PAYLOAD,2023-06-19 17:28:31,15.08840186,8.41e-05,53.2156,171.2915,79.4977,280.611,7.5875e-05,9.2e-06,0.0,0 STARLINK-5447,1 54779U 22175X   23170.72814172  .00000920  00000-0  75875-4 0  9991,2 54779  53.2156 171.2915 0000841  79.4977 280.6110 15.08840186 30077,6917.88,95.438,540.327,539.163,0.0
54779.0,STARLINK-5447,PAYLOAD,2023-06-20 09:22:22,15.08840044,8.75e-05,53.2158,168.3179,79.6447,280.4643,3.2924e-05,2.36e-06,0.0,0 STARLINK-5447,1 54779U 22175X   23171.39054299  .00000236  00000-0  32924-4 0  9999,2 54779  53.2158 168.3179 0000875  79.6447 280.4643 15.08840044 28012,6917.88,95.438,540.351,539.14,0.0
54779.0,STARLINK-5447,PAYLOAD,2023-06-21 09:13:09,15.08844134,8.98e-05,53.2159,163.857,82.4072,277.7022,2.2585e-05,7.2e-07,0.0,0 STARLINK-5447,1 54779U 22175X   23172.38413927  .00000072  00000-0  22585-4 0  9996,2 54779  53.2159 163.8570 0000898  82.4072 277.7022 15.08844134 30320,6917.868,95.437,540.354,539.112,0.0
54779.0,STARLINK-5447,PAYLOAD,2023-06-22 09:03:56,15.08837843,9.79e-05,53.2162,159.3963,86.3401,273.7703,2.7823e-05,1.55e-06,0.0,0 STARLINK-5447,1 54779U 22175X   23173.37774305  .00000155  00000-0  27823-4 0  9998,2 54779  53.2162 159.3963 0000979  86.3401 273.7703 15.08837843 28316,6917.887,95.438,540.429,539.075,0.0
54779.0,STARLINK-5447,PAYLOAD,2023-06-23 15:16:16,15.08835641,9.67e-05,53.2159,153.7474,84.3603,275.75,-5.5422e-06,-3.76e-06,0.0,0 STARLINK-5447,1 54779U 22175X   23174.63630714 -.00000376  00000-0 -55422-5 0  9997,2 54779  53.2159 153.7474 0000967  84.3603 275.7500 15.08835641 28508,6917.894,95.438,540.428,539.09,0.0
54779.0,STARLINK-5447,PAYLOAD,2023-06-25 02:14:46,15.08834219,9.28e-05,53.2166,147.206,80.3909,279.7188,-3.7173e-06,-3.47e-06,0.0,0 STARLINK-5447,1 54779U 22175X   23176.09359342 -.00000347  00000-0 -37173-5 0  9995,2 54779  53.2166 147.2060 0000928  80.3909 279.7188 15.08834219 28727,6917.898,95.438,540.405,539.121,0.0
54779.0,STARLINK-5447,PAYLOAD,2023-06-25 14:57:51,15.08840127,0.0001049,53.2163,144.8269,87.9843,272.127,3.1581e-05,2.15e-06,0.0,0 STARLINK-5447,1 54779U 22175X   23176.62350953  .00000215  00000-0  31581-4 0  9991,2 54779  53.2163 144.8269 0001049  87.9843 272.1270 15.08840127 28806,6917.88,95.438,540.471,539.019,0.0
54779.0,STARLINK-5447,PAYLOAD,2023-06-27 06:42:29,15.08839881,0.0001147,53.2161,137.3928,111.2559,248.8556,2.5517e-05,1.18e-06,0.0,0 STARLINK-5447,1 54779U 22175X   23178.27951164  .00000118  00000-0  25517-4 0  9999,2 54779  53.2161 137.3928 0001147 111.2559 248.8556 15.08839881 29057,6917.881,95.438,540.539,538.952,0.0
54779.0,STARLINK-5447,PAYLOAD,2023-06-29 03:13:17,15.0884334,0.0001217,53.2166,129.066,87.819,272.2942,8.2371e-05,1.023e-05,0.0,0 STARLINK-5447,1 54779U 22175X   23180.13422939  .00001023  00000-0  82371-4 0  9997,2 54779  53.2166 129.0660 0001217  87.8190 272.2942 15.08843340 29336,6917.87,95.437,540.577,538.893,0.0
54779.0,STARLINK-5447,PAYLOAD,2023-06-29 15:56:23,15.08834318,0.000129,53.2159,126.6885,84.3145,275.7994,8.5046e-05,1.066e-05,0.0,0 STARLINK-5447,1 54779U 22175X   23180.66415565  .00001066  00000-0  85046-4 0  9991,2 54779  53.2159 126.6885 0001290  84.3145 275.7994 15.08834318 29412,6917.898,95.438,540.655,538.87,0.0
54779.0,STARLINK-5447,PAYLOAD,2023-07-01 02:54:52,15.08835532,0.0001116,53.2164,120.1465,95.8071,264.3048,-4.0909e-05,-9.39e-06,0.0,0 STARLINK-5447,1 54779U 22175X   23182.12144066 -.00000939  00000-0 -40909-4 0  9998,2 54779  53.2164 120.1465 0001116  95.8071 264.3048 15.08835532 29630,6917.894,95.438,540.531,538.987,0.0
54779.0,STARLINK-5447,PAYLOAD,2023-07-02 05:56:25,15.08837825,0.0001056,53.2169,115.0913,98.2884,261.8228,-4.1801e-06,-3.54e-06,0.0,0 STARLINK-5447,1 54779U 22175X   23183.24752238 -.00000354  00000-0 -41801-5 0  9992,2 54779  53.2169 115.0913 0001056  98.2884 261.8228 15.08837825 29806,6917.887,95.438,540.483,539.022,0.0
54779.0,STARLINK-5447,PAYLOAD,2023-07-03 04:11:49,15.08843015,0.0001101,53.217,110.9283,102.0136,258.098,0.00012334,1.676e-05,0.0,0 STARLINK-5447,1 54779U 22175X   23184.17487826  .00001676  00000-0  12334-3 0  9996,2 54779  53.2170 110.9283 0001101 102.0136 258.0980 15.08843015 29943,6917.871,95.437,540.498,538.975,0.0
54779.0,STARLINK-5447,PAYLOAD,2023-07-04 02:27:13,15.08841131,0.0001204,53.2181,106.765,89.3687,270.7443,4.9796e-05,5.05e-06,0.0,0 STARLINK-5447,1 54779U 22175X   23185.10224322  .00000505  00000-0  49796-4 0  9993,2 54779  53.2181 106.7650 0001204  89.3687 270.7443 15.08841131 30087,6917.877,95.437,540.575,538.909,0.0
54779.0,STARLINK-5447,PAYLOAD,2023-07-05 03:53:23,15.08843769,0.0001153,53.2171,102.0067,92.0686,268.0438,2.8165e-05,1.6e-06,0.0,0 STARLINK-5447,1 54779U 22175X   23186.16208183  .00000160  00000-0  28165-4 0  9991,2 54779  53.2171 102.0067 0001153  92.0686 268.0438 15.08843769 30241,6917.869,95.437,540.531,538.936,0.0
54779.0,STARLINK-5447,PAYLOAD,2023-07-06 00:33:24,15.08836791,0.0001155,53.2171,98.1409,88.7518,271.3606,3.5562e-05,2.78e-06,0.0,0 STARLINK-5447,1 54779U 22175X   23187.02320592  .00000278  00000-0  35562-4 0  9995,2 54779  53.2171  98.1409 0001155  88.7518 271.3606 15.08836791 30379,6917.89,95.438,540.554,538.956,0.0
54779.0,STARLINK-5447,PAYLOAD,2023-07-07 03:34:57,15.0885427,0.0001394,53.2168,93.0861,92.4042,267.711,1.7438e-05,-1e-07,0.0,0 STARLINK-5447,1 54779U 22175X   23188.14927485 -.00000010  00000-0  17438-4 0  9990,2 54779  53.2168  93.0861 0001394  92.4042 267.7110 15.08854270 30540,6917.837,95.437,540.666,538.737,0.0
54779.0,STARLINK-5447,PAYLOAD,2023-07-07 17:53:26,15.08838812,0.0001383,53.2161,90.41,85.1883,274.9267,4.7424e-05,4.67e-06,0.0,0 STARLINK-5447,1 54779U 22175X   23188.74544403  .00000467  00000-0  47424-4 0  9994,2 54779  53.2161  90.4100 0001383  85.1883 274.9267 15.08838812 30637,6917.884,95.438,540.706,538.792,0.0
54779.0,STARLINK-5447,PAYLOAD,2023-07-08 17:44:13,15.0883574,0.0001328,53.2164,85.9495,93.6609,266.4535,-5.4468e-05,-1.155e-05,0.0,0 STARLINK-5447,1 54779U 22175X   23189.73904977 -.00001155  00000-0 -54468-4 0  9993,2 54779  53.2164  85.9495 0001328  93.6609 266.4535 15.08835740 30782,6917.893,95.438,540.677,538.84,0.0
54779.0,STARLINK-5447,PAYLOAD,2023-07-10 01:31:56,15.08838489,0.0001089,53.218,80.0039,97.9264,262.1852,4.408e-05,4.14e-06,0.0,0 STARLINK-5447,1 54779U 22175X   23191.06384777  .00000414  00000-0  44080-4 0  9996,2 54779  53.2180  80.0039 0001089  97.9264 262.1852 15.08838489 30988,6917.885,95.438,540.503,538.997,0.0
